#cP2023  2 12  0  0  0.00000000      96 ORBIT IGS20 HLM  IGS
## 2249      0.00000000   900.00000000 59987 0.0000000000000
+   32   G01G02G03G04G05G06G07G08G09G10G11G12G13G14G15G16G17
+        G18G19G20G21G22G23G24G25G26G27G28G29G30G31G32  0  0
+          0  0  0  0  0  0  0  0  0  0  0  0  0  0  0  0  0
+          0  0  0  0  0  0  0  0  0  0  0  0  0  0  0  0  0
+          0  0  0  0  0  0  0  0  0  0  0  0  0  0  0  0  0
++         2  2  2  3  2  2  2  2  2  2  2  2  2  2  2  2  2
++         2  2  2  2  3  2  2  2  2  3  3  2  2  2  2  0  0
++         0  0  0  0  0  0  0  0  0  0  0  0  0  0  0  0  0
++         0  0  0  0  0  0  0  0  0  0  0  0  0  0  0  0  0
++         0  0  0  0  0  0  0  0  0  0  0  0  0  0  0  0  0
%c G  cc GPS ccc cccc cccc cccc cccc ccccc ccccc ccccc ccccc
%c cc cc ccc ccc cccc cccc cccc cccc ccccc ccccc ccccc ccccc
%f  1.2500000  1.025000000  0.00000000000  0.000000000000000
%f  0.0000000  0.000000000  0.00000000000  0.000000000000000
%i    0    0    0    0      0      0      0      0         0
%i    0    0    0    0      0      0      0      0         0
/* RAPID ORBIT COMBINATION FROM WEIGHTED AVERAGE OF:        
/* cod emr esa gfz grg jpl ngs sio usn whu                  
/* REFERENCED TO IGS TIME (IGST) AND TO WEIGHTED MEAN POLE: 
/* PCV:IGS20_2233 OL/AL:FES2014b NONE     Y  ORB:CMB CLK:CMB
*  2023  2 12  0 45  0.00000000
PG01  21138.661241  12930.200159   9714.030315    213.555057  4  5  5 107       
PG02 -21923.196877  -8431.115787 -11541.904514   -621.461270  6  6  6 112       
PG03  14035.929756   4738.865116  21926.227398   -364.183350  7  7  5 120       
PG04  24693.702392   1505.656191   9821.547083    -29.465705 10  7  8 107       
PG05  -7266.630914 -19572.762453 -16515.957109   -115.569698  7  8  5 102       
PG06   1728.712553 -17271.057544  20143.090590    571.297358  6  5  6 104       
PG07  18564.610713   -166.458625 -18737.468754    242.662370  7  8  4 112       
PG08  17045.181303   8683.936802 -18643.184960   -108.078100  7  8  8 125       
PG09  25443.857790  -7684.475101   -693.102216   -219.911325  6  6  4  79       
PG10 -11214.553837  22765.791180  -7093.388417    -24.337524  5  4  8  94       
PG11  -9833.245469 -22255.291067  10703.278196   -101.836325  7  7  5 110       
PG12 -13156.345580  -7468.674893  21557.470083   -339.258189  9  4  7 133       
PG13  -9294.212366 -13490.432011 -21120.643478    474.615402 10  5  7 123       
PG14  13513.920667 -20790.045998  -9336.010422    -29.268489  8  4  9 106       
PG15 -18208.447724  -7329.156091 -18462.967838     12.648190 10  8  6 111       
PG16   3276.497165  21427.240206 -15323.674423   -520.480930  8  5  7 104       
PG17  18953.621221 -13124.847248  13709.666213    699.432763  9  6  6 109       
PG18 -15980.488474   3813.995096 -20897.018379   -136.904010 10  5  6 106       
PG19   9037.523272 -14875.245356  19749.013213    276.479962  9  6  7  83       
PG20  -1834.317067 -25847.442643  -6287.027332    451.266239  8  6  6 113       
PG21  21383.076932  16433.660381   2067.056901    153.934392  6  4  7 115       
PG22  -4892.645144  15803.174199  21179.551724    425.181192  9  6  9 125       
PG23 -15154.163104  13940.951704 -16690.460732      5.764137 10  5  6  92       
PG24 -22100.446419 -14223.838406   4809.193950    -69.908499  6 10  6 117       
PG25 -16014.661346   3606.180570  20514.507580    419.320956  8  9  7 132       
PG26  -3735.606425  26019.943723  -2242.464970    241.399494  7  5  6 116       
PG27   5545.674258  14170.594803 -22019.430820    104.541486  5  9 10 110       
PG28  -3263.348408  16573.141125  20464.741284      8.578247 12  9  3  67       
PG29 -26310.705502   3260.127570   2141.833816   -585.640356 10  6  5 108       
PG30   9674.165822 -12513.320640 -21225.691004   -530.608034  6  7  7 108       
PG31   -668.865961  18562.460354  18641.122197   -208.993190  8  6  3 134       
PG32 -15648.301822  15204.331272  15170.617506   -393.375302  8  7  7 100       
*  2023  2 12  1  0  0.00000000
PG01  21742.933011  13723.092680   7038.367929    213.551170  4  4  5 102       
PG02 -22756.929026  -9413.471952  -9007.522227   -621.459068  6  6  6 111       
PG03  13428.006546   7178.666362  21653.586675   -364.179385  7  6  5 112       
PG04  23525.355731   2020.887684  12279.973366    -29.458396  9  7  8 100       
PG05  -6759.539088 -21257.565306 -14494.763834   -115.571518  7  7  5 105       
PG06   3462.199687 -15687.573858  21199.380391    571.301452  6  5  5  98       
PG07  20001.940865   1404.091999 -17222.618198    242.656076  7  8  4 109       
PG08  14994.786938   9449.163309 -19954.957728   -108.079676  7  8  7 115       
PG09  25437.319649  -7403.485669   2148.723317   -219.905027  7  6  5  99       
PG10 -11195.492996  21748.897839  -9774.897638    -24.338379  5  4  8 108       
PG11  -8751.680045 -21408.366008  13100.440143   -101.845415  6  7  5 103       
PG12 -12363.631609  -9836.823856  21085.958240   -339.262090  9  5  7 127       
PG13  -6916.687001 -13889.312999 -21753.155415    474.620796 10  4  6 111       
PG14  13438.700517 -19548.497462 -11810.262889    -29.260606  8  4  9 114       
PG15 -16345.558003  -8314.564918 -19750.661727     12.651243  9  8  6 103       
PG16   2571.772406  22875.859296 -13126.242947   -520.479385  8  4  7 113       
PG17  20319.881732 -13274.631732  11334.812319    699.434783  9  5  6 106       
PG18 -17581.389599   2127.162509 -19836.753726   -136.918199 10  4  5 114       
PG19  11252.058374 -15153.430157  18343.032282    276.484415  9  6  7  89       
PG20  -1522.433975 -26390.432924  -3546.091380    451.264169  8  5  6 107       
PG21  21272.403088  16588.938695   -741.180983    153.934439  5  4  7 117       
PG22  -7145.883224  16180.661441  20196.492960    425.188257  8  6  8 112       
PG23 -14875.589112  11943.691433 -18413.674431      5.765550 10  5  5 101       
PG24 -22248.969168 -14723.889823   2068.115660    -69.923020  6 10  6 119       
PG25 -15538.341763   1194.965199  21167.940359    419.323869  8  9  7 130       
PG26  -4101.435062  26042.113084    577.724980    241.399795  7  4  5 127       
PG27   3177.537391  14857.893552 -21998.794780    104.533333  6  8  9 103       
PG28  -5101.651757  15038.320475  21257.314856      8.592926 11  9  3  81       
PG29 -25949.450085   2980.637355   4989.069594   -585.642499 10  6  4 101       
PG30  11452.514778 -10809.512341 -21299.798054   -530.607023  6  7  7 109       
PG31  -2368.494264  17075.489164  19911.451480   -208.994500  8  6  4 132       
PG32 -17232.592773  15471.110928  12986.672138   -393.385857  8  7  7  97       
*  2023  2 12  1 15  0.00000000
PG01  22158.461439  14274.117993   4242.845922    213.547180  3  4  5 102       
PG02 -23395.468513 -10171.063471  -6312.014980   -621.456762  7  6  7 108       
PG03  12963.339154   9594.936424  21004.599585   -364.175489  7  5  6 110       
PG04  22132.400970   2678.538821  14528.340209    -29.451102  9  6  8 104       
PG05  -6372.991012 -22727.988034 -12225.310291   -115.572375  8  6  6 103       
PG06   5356.924013 -14140.946117  21892.484029    571.305581  6  6  5  91       
PG07  21368.825259   2771.890047 -15407.049802    242.649701  7  8  3 102       
PG08  12865.084209  10369.315540 -20928.301447   -108.080414  7  8  7 113       
PG09  25147.314132  -7007.558966   4953.639545   -219.898707  8  5  5 100       
PG10 -11179.766588  20439.146723 -12283.964994    -24.339391  6  4  8 113       
PG11  -7438.198954 -20442.917265  15272.663684   -101.854476  6  7  4  96       
PG12 -11714.826581 -12168.474038  20242.830149   -339.266078  9  5  6 123       
PG13  -4513.454772 -14427.128350 -22018.020997    474.626210 10  4  6 125       
PG14  13368.727210 -18042.341117 -14079.864671    -29.252653  8  5  9 124       
PG15 -14422.671278  -9447.452081 -20713.054270     12.654397  8  8  5 131       
PG16   2009.797058  24109.234864 -10701.390222   -520.478036  8  5  7 119       
PG17  21412.817022 -13420.194464   8769.828751    699.436998  8  5  6  97       
PG18 -19165.880174    622.309960 -18436.359405   -136.932379 10  4  5  94       
PG19  13274.255345 -15506.961075  16612.682603    276.489140  9  5  7  57       
PG20  -1243.058670 -26636.676927   -744.871383    451.261626  8  4  6  99       
PG21  20912.958748  16573.879534  -3537.199950    153.934457  4  4  6 113       
PG22  -9255.321283  16644.550325  18876.914781    425.195274  9  7  8 118       
PG23 -14678.193482   9759.671836 -19818.379252      5.766977 10  5  4  91       
PG24 -22171.565802 -15034.524427   -707.804354    -69.937489  7 10  6 108       
PG25 -15174.367022  -1287.591283  21445.658292    419.326812  8  9  6 131       
PG26  -4429.541090  25763.357395   3387.743083    241.400104  8  4  5 125       
PG27    867.689721  15665.591189 -21607.025196    104.525168  6  8  9 109       
PG28  -7071.872840  13558.661211  21683.035887      8.607545 11  9  3 135       
PG29 -25297.902096   2596.228429   7750.739048   -585.644305  9  6  5  77       
PG30  13298.850779  -9202.700363 -21004.465267   -530.605876  6  7  6 108       
PG31  -4231.556219  15594.416014  20830.415251   -208.995310  8  7  4 129       
PG32 -18559.290595  15728.923403  10579.018771   -393.396408  9  8  7 112       
EOF
